KUIPER-00095            
1 65134U 25171C   25232.58335648 -.00010521  00000+0 -29384-3 0  9990
2 65134  51.8774   1.0146 0005336 179.0599 256.6092 15.35056547  1307
KUIPER-00096            
1 65135U 25171D   25232.58335648 -.00009446  00000+0 -26079-3 0  9993
2 65135  51.8772   0.9977 0005391 167.9024 275.1996 15.35275021  2430
KUIPER-00097            
1 65136U 25171E   25232.58335648 -.00008335  00000+0 -23090-3 0  9990
2 65136  51.8774   1.0190 0005450 181.3346 252.1689 15.34990608  1656
KUIPER-00098            
1 65137U 25171F   25232.58335648 -.00007165  00000+0 -19231-3 0  9993
2 65137  51.8779   0.9709 0006344 152.3801 305.4145 15.35703483  1803
KUIPER-00099            
1 65138U 25171G   25232.58335648 -.00007846  00000+0 -21284-3 0  9991
2 65138  51.8782   0.9856 0006087 157.4913 294.0423 15.35532226  1622
KUIPER-00100            
1 65139U 25171H   25232.58335648 -.00008157  00000+0 -22304-3 0  9992
2 65139  51.8774   0.9917 0005840 164.5190 281.4073 15.35353808  1925
KUIPER-00102            
1 65140U 25171J   25232.58335648 -.00008198  00000+0 -22659-3 0  9992
2 65140  51.8770   1.0109 0005266 174.4760 262.1246 15.35037418  2434
KUIPER-00103            
1 65141U 25171K   25232.58335648 -.00007614  00000+0 -20834-3 0  9998
2 65141  51.8771   1.0017 0005352 170.6864 270.4254 15.35225660  2320
