<?xml version="1.0" encoding="UTF-8"?>
<ndm xmlns:xsi="http://www.w3.org/2001/XMLSchema-instance" xsi:noNamespaceSchemaLocation="https://sanaregistry.org/r/ndmxml_unqualified/ndmxml-2.0.0-master-2.0.xsd">
<omm id="CCSDS_OMM_VERS" version="2.0">
<header><CREATION_DATE/><ORIGINATOR/></header><body><segment><metadata><OBJECT_NAME>KUIPER-00095</OBJECT_NAME><OBJECT_ID>2025-171C</OBJECT_ID><CENTER_NAME>EARTH</CENTER_NAME><REF_FRAME>TEME</REF_FRAME><TIME_SYSTEM>UTC</TIME_SYSTEM><MEAN_ELEMENT_THEORY>SGP4</MEAN_ELEMENT_THEORY></metadata><data><meanElements><EPOCH>2025-08-20T14:00:01.999872</EPOCH><MEAN_MOTION>15.35056547</MEAN_MOTION><ECCENTRICITY>.0005336</ECCENTRICITY><INCLINATION>51.8774</INCLINATION><RA_OF_ASC_NODE>1.0146</RA_OF_ASC_NODE><ARG_OF_PERICENTER>179.0599</ARG_OF_PERICENTER><MEAN_ANOMALY>256.6092</MEAN_ANOMALY></meanElements><tleParameters><EPHEMERIS_TYPE>0</EPHEMERIS_TYPE><CLASSIFICATION_TYPE>U</CLASSIFICATION_TYPE><NORAD_CAT_ID>65134</NORAD_CAT_ID><ELEMENT_SET_NO>999</ELEMENT_SET_NO><REV_AT_EPOCH>130</REV_AT_EPOCH><BSTAR>-.29384E-3</BSTAR><MEAN_MOTION_DOT>-.10521E-3</MEAN_MOTION_DOT><MEAN_MOTION_DDOT>0</MEAN_MOTION_DDOT></tleParameters></data></segment></body></omm>
<omm id="CCSDS_OMM_VERS" version="2.0">
<header><CREATION_DATE/><ORIGINATOR/></header><body><segment><metadata><OBJECT_NAME>KUIPER-00096</OBJECT_NAME><OBJECT_ID>2025-171D</OBJECT_ID><CENTER_NAME>EARTH</CENTER_NAME><REF_FRAME>TEME</REF_FRAME><TIME_SYSTEM>UTC</TIME_SYSTEM><MEAN_ELEMENT_THEORY>SGP4</MEAN_ELEMENT_THEORY></metadata><data><meanElements><EPOCH>2025-08-20T14:00:01.999872</EPOCH><MEAN_MOTION>15.35275021</MEAN_MOTION><ECCENTRICITY>.0005391</ECCENTRICITY><INCLINATION>51.8772</INCLINATION><RA_OF_ASC_NODE>0.9977</RA_OF_ASC_NODE><ARG_OF_PERICENTER>167.9024</ARG_OF_PERICENTER><MEAN_ANOMALY>275.1996</MEAN_ANOMALY></meanElements><tleParameters><EPHEMERIS_TYPE>0</EPHEMERIS_TYPE><CLASSIFICATION_TYPE>U</CLASSIFICATION_TYPE><NORAD_CAT_ID>65135</NORAD_CAT_ID><ELEMENT_SET_NO>999</ELEMENT_SET_NO><REV_AT_EPOCH>243</REV_AT_EPOCH><BSTAR>-.26079E-3</BSTAR><MEAN_MOTION_DOT>-.9446E-4</MEAN_MOTION_DOT><MEAN_MOTION_DDOT>0</MEAN_MOTION_DDOT></tleParameters></data></segment></body></omm>
<omm id="CCSDS_OMM_VERS" version="2.0">
<header><CREATION_DATE/><ORIGINATOR/></header><body><segment><metadata><OBJECT_NAME>KUIPER-00097</OBJECT_NAME><OBJECT_ID>2025-171E</OBJECT_ID><CENTER_NAME>EARTH</CENTER_NAME><REF_FRAME>TEME</REF_FRAME><TIME_SYSTEM>UTC</TIME_SYSTEM><MEAN_ELEMENT_THEORY>SGP4</MEAN_ELEMENT_THEORY></metadata><data><meanElements><EPOCH>2025-08-20T14:00:01.999872</EPOCH><MEAN_MOTION>15.34990608</MEAN_MOTION><ECCENTRICITY>.000545</ECCENTRICITY><INCLINATION>51.8774</INCLINATION><RA_OF_ASC_NODE>1.0190</RA_OF_ASC_NODE><ARG_OF_PERICENTER>181.3346</ARG_OF_PERICENTER><MEAN_ANOMALY>252.1689</MEAN_ANOMALY></meanElements><tleParameters><EPHEMERIS_TYPE>0</EPHEMERIS_TYPE><CLASSIFICATION_TYPE>U</CLASSIFICATION_TYPE><NORAD_CAT_ID>65136</NORAD_CAT_ID><ELEMENT_SET_NO>999</ELEMENT_SET_NO><REV_AT_EPOCH>165</REV_AT_EPOCH><BSTAR>-.2309E-3</BSTAR><MEAN_MOTION_DOT>-.8335E-4</MEAN_MOTION_DOT><MEAN_MOTION_DDOT>0</MEAN_MOTION_DDOT></tleParameters></data></segment></body></omm>
<omm id="CCSDS_OMM_VERS" version="2.0">
<header><CREATION_DATE/><ORIGINATOR/></header><body><segment><metadata><OBJECT_NAME>KUIPER-00098</OBJECT_NAME><OBJECT_ID>2025-171F</OBJECT_ID><CENTER_NAME>EARTH</CENTER_NAME><REF_FRAME>TEME</REF_FRAME><TIME_SYSTEM>UTC</TIME_SYSTEM><MEAN_ELEMENT_THEORY>SGP4</MEAN_ELEMENT_THEORY></metadata><data><meanElements><EPOCH>2025-08-20T14:00:01.999872</EPOCH><MEAN_MOTION>15.35703483</MEAN_MOTION><ECCENTRICITY>.0006344</ECCENTRICITY><INCLINATION>51.8779</INCLINATION><RA_OF_ASC_NODE>0.9709</RA_OF_ASC_NODE><ARG_OF_PERICENTER>152.3801</ARG_OF_PERICENTER><MEAN_ANOMALY>305.4145</MEAN_ANOMALY></meanElements><tleParameters><EPHEMERIS_TYPE>0</EPHEMERIS_TYPE><CLASSIFICATION_TYPE>U</CLASSIFICATION_TYPE><NORAD_CAT_ID>65137</NORAD_CAT_ID><ELEMENT_SET_NO>999</ELEMENT_SET_NO><REV_AT_EPOCH>180</REV_AT_EPOCH><BSTAR>-.19231E-3</BSTAR><MEAN_MOTION_DOT>-.7165E-4</MEAN_MOTION_DOT><MEAN_MOTION_DDOT>0</MEAN_MOTION_DDOT></tleParameters></data></segment></body></omm>
<omm id="CCSDS_OMM_VERS" version="2.0">
<header><CREATION_DATE/><ORIGINATOR/></header><body><segment><metadata><OBJECT_NAME>KUIPER-00099</OBJECT_NAME><OBJECT_ID>2025-171G</OBJECT_ID><CENTER_NAME>EARTH</CENTER_NAME><REF_FRAME>TEME</REF_FRAME><TIME_SYSTEM>UTC</TIME_SYSTEM><MEAN_ELEMENT_THEORY>SGP4</MEAN_ELEMENT_THEORY></metadata><data><meanElements><EPOCH>2025-08-20T14:00:01.999872</EPOCH><MEAN_MOTION>15.35532226</MEAN_MOTION><ECCENTRICITY>.0006087</ECCENTRICITY><INCLINATION>51.8782</INCLINATION><RA_OF_ASC_NODE>0.9856</RA_OF_ASC_NODE><ARG_OF_PERICENTER>157.4913</ARG_OF_PERICENTER><MEAN_ANOMALY>294.0423</MEAN_ANOMALY></meanElements><tleParameters><EPHEMERIS_TYPE>0</EPHEMERIS_TYPE><CLASSIFICATION_TYPE>U</CLASSIFICATION_TYPE><NORAD_CAT_ID>65138</NORAD_CAT_ID><ELEMENT_SET_NO>999</ELEMENT_SET_NO><REV_AT_EPOCH>162</REV_AT_EPOCH><BSTAR>-.21284E-3</BSTAR><MEAN_MOTION_DOT>-.7846E-4</MEAN_MOTION_DOT><MEAN_MOTION_DDOT>0</MEAN_MOTION_DDOT></tleParameters></data></segment></body></omm>
<omm id="CCSDS_OMM_VERS" version="2.0">
<header><CREATION_DATE/><ORIGINATOR/></header><body><segment><metadata><OBJECT_NAME>KUIPER-00100</OBJECT_NAME><OBJECT_ID>2025-171H</OBJECT_ID><CENTER_NAME>EARTH</CENTER_NAME><REF_FRAME>TEME</REF_FRAME><TIME_SYSTEM>UTC</TIME_SYSTEM><MEAN_ELEMENT_THEORY>SGP4</MEAN_ELEMENT_THEORY></metadata><data><meanElements><EPOCH>2025-08-20T14:00:01.999872</EPOCH><MEAN_MOTION>15.35353808</MEAN_MOTION><ECCENTRICITY>.000584</ECCENTRICITY><INCLINATION>51.8774</INCLINATION><RA_OF_ASC_NODE>0.9917</RA_OF_ASC_NODE><ARG_OF_PERICENTER>164.5190</ARG_OF_PERICENTER><MEAN_ANOMALY>281.4073</MEAN_ANOMALY></meanElements><tleParameters><EPHEMERIS_TYPE>0</EPHEMERIS_TYPE><CLASSIFICATION_TYPE>U</CLASSIFICATION_TYPE><NORAD_CAT_ID>65139</NORAD_CAT_ID><ELEMENT_SET_NO>999</ELEMENT_SET_NO><REV_AT_EPOCH>192</REV_AT_EPOCH><BSTAR>-.22304E-3</BSTAR><MEAN_MOTION_DOT>-.8157E-4</MEAN_MOTION_DOT><MEAN_MOTION_DDOT>0</MEAN_MOTION_DDOT></tleParameters></data></segment></body></omm>
<omm id="CCSDS_OMM_VERS" version="2.0">
<header><CREATION_DATE/><ORIGINATOR/></header><body><segment><metadata><OBJECT_NAME>KUIPER-00102</OBJECT_NAME><OBJECT_ID>2025-171J</OBJECT_ID><CENTER_NAME>EARTH</CENTER_NAME><REF_FRAME>TEME</REF_FRAME><TIME_SYSTEM>UTC</TIME_SYSTEM><MEAN_ELEMENT_THEORY>SGP4</MEAN_ELEMENT_THEORY></metadata><data><meanElements><EPOCH>2025-08-20T14:00:01.999872</EPOCH><MEAN_MOTION>15.35037418</MEAN_MOTION><ECCENTRICITY>.0005266</ECCENTRICITY><INCLINATION>51.8770</INCLINATION><RA_OF_ASC_NODE>1.0109</RA_OF_ASC_NODE><ARG_OF_PERICENTER>174.4760</ARG_OF_PERICENTER><MEAN_ANOMALY>262.1246</MEAN_ANOMALY></meanElements><tleParameters><EPHEMERIS_TYPE>0</EPHEMERIS_TYPE><CLASSIFICATION_TYPE>U</CLASSIFICATION_TYPE><NORAD_CAT_ID>65140</NORAD_CAT_ID><ELEMENT_SET_NO>999</ELEMENT_SET_NO><REV_AT_EPOCH>243</REV_AT_EPOCH><BSTAR>-.22659E-3</BSTAR><MEAN_MOTION_DOT>-.8198E-4</MEAN_MOTION_DOT><MEAN_MOTION_DDOT>0</MEAN_MOTION_DDOT></tleParameters></data></segment></body></omm>
<omm id="CCSDS_OMM_VERS" version="2.0">
<header><CREATION_DATE/><ORIGINATOR/></header><body><segment><metadata><OBJECT_NAME>KUIPER-00103</OBJECT_NAME><OBJECT_ID>2025-171K</OBJECT_ID><CENTER_NAME>EARTH</CENTER_NAME><REF_FRAME>TEME</REF_FRAME><TIME_SYSTEM>UTC</TIME_SYSTEM><MEAN_ELEMENT_THEORY>SGP4</MEAN_ELEMENT_THEORY></metadata><data><meanElements><EPOCH>2025-08-20T14:00:01.999872</EPOCH><MEAN_MOTION>15.35225660</MEAN_MOTION><ECCENTRICITY>.0005352</ECCENTRICITY><INCLINATION>51.8771</INCLINATION><RA_OF_ASC_NODE>1.0017</RA_OF_ASC_NODE><ARG_OF_PERICENTER>170.6864</ARG_OF_PERICENTER><MEAN_ANOMALY>270.4254</MEAN_ANOMALY></meanElements><tleParameters><EPHEMERIS_TYPE>0</EPHEMERIS_TYPE><CLASSIFICATION_TYPE>U</CLASSIFICATION_TYPE><NORAD_CAT_ID>65141</NORAD_CAT_ID><ELEMENT_SET_NO>999</ELEMENT_SET_NO><REV_AT_EPOCH>232</REV_AT_EPOCH><BSTAR>-.20834E-3</BSTAR><MEAN_MOTION_DOT>-.7614E-4</MEAN_MOTION_DOT><MEAN_MOTION_DDOT>0</MEAN_MOTION_DDOT></tleParameters></data></segment></body></omm>

</ndm>
